EUTELSAT 16A            
1 37836U 11057A   26115.83933421  .00000090  00000+0  00000+0 0  9996
2 37836   0.0534   4.1075 0005736  36.1428 131.7629  1.00270443  6818
VIASAT-1                
1 37843U 11059A   26115.63100219 -.00000037  00000+0  00000+0 0  9997
2 37843   0.0192 248.6878 0002166 147.3867 289.6369  1.00270670 46795
ASIASAT 7               
1 37933U 11069A   26115.88198176 -.00000347  00000+0  00000+0 0  9998
2 37933   0.0631  82.7462 0001537 304.5291 249.6479  1.00270794 44331
BEIDOU-2 IGSO-5         
1 37948U 11073A   26114.90441628 -.00000195  00000+0  00000+0 0  9995
2 37948  47.7775 272.2003 0110571 220.5837 139.3975  1.00260420 52603
LUCH-5A                 
1 37951U 11074B   26115.77731796 -.00000057  00000+0  00000+0 0  9991
2 37951   8.6237  74.5624 0002714 302.6373 283.3454  1.00272711 52523
NIGCOMSAT 1R            
1 38014U 11077A   26115.78944565  .00000131  00000+0  00000+0 0  9998
2 38014   0.0371 110.9387 0002491 232.2357 197.3280  1.00274225 52435
WGS F4 (USA 233)        
1 38070U 12003A   26115.43601485 -.00000229  00000+0  00000+0 0  9992
2 38070   0.0171 219.0111 0000405  86.5367 153.2713  1.00271192 43628
SES-4                   
1 38087U 12007A   26115.34878478 -.00000182  00000+0  00000+0 0  9990
2 38087   0.0230  52.1996 0002597   2.1421 262.5989  1.00271592 51697
BEIDOU-2 G5             
1 38091U 12008A   26115.86389263  .00000046  00000+0  00000+0 0  9990
2 38091   3.4454  69.9882 0012310 265.6353 247.9869  1.00272732 51849
MUOS-1                  
1 38093U 12009A   26115.83251918 -.00000137  00000+0  00000+0 0  9997
2 38093   5.3701  47.1781 0059684   1.6208   4.7311  1.00270226 51921
INTELSAT 22 (IS-22)     
1 38098U 12011A   26115.79525234 -.00000072  00000+0  00000+0 0  9993
2 38098   0.0195 113.8551 0001768 285.0185 173.3255  1.00270622  6664
APSTAR-7                
1 38107U 12013A   26115.86744598 -.00000115  00000+0  00000+0 0  9998
2 38107   0.0336  92.4729 0002923 318.8345 191.3451  1.00271264 51287
YAHSAT 1B               
1 38245U 12016A   26115.14866056  .00000112  00000+0  00000+0 0  9995
2 38245   0.0873  86.4442 0002545 311.4070 276.4329  1.00271856 45071
AEHF-2 (USA 235)        
1 38254U 12019A   26114.63686090 -.00000146  00000+0  00000+0 0  9997
2 38254   6.5281  57.8719 0002600 321.8136  45.7198  1.00272749  6456
JCSAT-13                
1 38331U 12023A   26115.73421337 -.00000370  00000+0  00000+0 0  9990
2 38331   0.0481  71.6483 0002371 326.5746 203.8439  1.00271884 51015
VINASAT-2               
1 38332U 12023B   26115.80712573  .00000000  00000+0  00000+0 0  9993
2 38332   0.0112  60.1445 0002739 352.6564 223.4357  1.00268700 46131
NIMIQ 6                 
1 38342U 12026A   26115.87336475 -.00000187  00000+0  00000+0 0  9994
2 38342   0.0622  75.8877 0002522 313.0103  48.2946  1.00271827 49886
