[{"OBJECT_NAME":"EUTELSAT 16A","OBJECT_ID":"2011-057A","EPOCH":"2026-04-25T20:08:38.475744","MEAN_MOTION":1.00270443,"ECCENTRICITY":0.0005736,"INCLINATION":0.0534,"RA_OF_ASC_NODE":4.1075,"ARG_OF_PERICENTER":36.1428,"MEAN_ANOMALY":131.7629,"EPHEMERIS_TYPE":0,"CLASSIFICATION_TYPE":"U","NORAD_CAT_ID":37836,"ELEMENT_SET_NO":999,"REV_AT_EPOCH":681,"BSTAR":0,"MEAN_MOTION_DOT":9.0e-7,"MEAN_MOTION_DDOT":0},{"OBJECT_NAME":"VIASAT-1","OBJECT_ID":"2011-059A","EPOCH":"2026-04-25T15:08:38.589216","MEAN_MOTION":1.0027067,"ECCENTRICITY":0.0002166,"INCLINATION":0.0192,"RA_OF_ASC_NODE":248.6878,"ARG_OF_PERICENTER":147.3867,"MEAN_ANOMALY":289.6369,"EPHEMERIS_TYPE":0,"CLASSIFICATION_TYPE":"U","NORAD_CAT_ID":37843,"ELEMENT_SET_NO":999,"REV_AT_EPOCH":4679,"BSTAR":0,"MEAN_MOTION_DOT":-3.7e-7,"MEAN_MOTION_DDOT":0},{"OBJECT_NAME":"ASIASAT 7","OBJECT_ID":"2011-069A","EPOCH":"2026-04-25T21:10:03.224064","MEAN_MOTION":1.00270794,"ECCENTRICITY":0.0001537,"INCLINATION":0.0631,"RA_OF_ASC_NODE":82.7462,"ARG_OF_PERICENTER":304.5291,"MEAN_ANOMALY":249.6479,"EPHEMERIS_TYPE":0,"CLASSIFICATION_TYPE":"U","NORAD_CAT_ID":37933,"ELEMENT_SET_NO":999,"REV_AT_EPOCH":4433,"BSTAR":0,"MEAN_MOTION_DOT":-3.47e-6,"MEAN_MOTION_DDOT":0},{"OBJECT_NAME":"BEIDOU-2 IGSO-5","OBJECT_ID":"2011-073A","EPOCH":"2026-04-24T21:42:21.566592","MEAN_MOTION":1.0026042,"ECCENTRICITY":0.01105716,"INCLINATION":47.7775,"RA_OF_ASC_NODE":272.2003,"ARG_OF_PERICENTER":220.5837,"MEAN_ANOMALY":139.3975,"EPHEMERIS_TYPE":0,"CLASSIFICATION_TYPE":"U","NORAD_CAT_ID":37948,"ELEMENT_SET_NO":999,"REV_AT_EPOCH":5260,"BSTAR":0,"MEAN_MOTION_DOT":-1.95e-6,"MEAN_MOTION_DDOT":0},{"OBJECT_NAME":"LUCH-5A","OBJECT_ID":"2011-074B","EPOCH":"2026-04-25T18:39:20.271744","MEAN_MOTION":1.00272711,"ECCENTRICITY":0.0002714,"INCLINATION":8.6237,"RA_OF_ASC_NODE":74.5624,"ARG_OF_PERICENTER":302.6373,"MEAN_ANOMALY":283.3454,"EPHEMERIS_TYPE":0,"CLASSIFICATION_TYPE":"U","NORAD_CAT_ID":37951,"ELEMENT_SET_NO":999,"REV_AT_EPOCH":5252,"BSTAR":0,"MEAN_MOTION_DOT":-5.7e-7,"MEAN_MOTION_DDOT":0},{"OBJECT_NAME":"NIGCOMSAT 1R","OBJECT_ID":"2011-077A","EPOCH":"2026-04-25T18:56:48.104160","MEAN_MOTION":1.00274225,"ECCENTRICITY":0.0002491,"INCLINATION":0.0371,"RA_OF_ASC_NODE":110.9387,"ARG_OF_PERICENTER":232.2357,"MEAN_ANOMALY":197.328,"EPHEMERIS_TYPE":0,"CLASSIFICATION_TYPE":"U","NORAD_CAT_ID":38014,"ELEMENT_SET_NO":999,"REV_AT_EPOCH":5243,"BSTAR":0,"MEAN_MOTION_DOT":1.31e-6,"MEAN_MOTION_DDOT":0},{"OBJECT_NAME":"WGS F4 (USA 233)","OBJECT_ID":"2012-003A","EPOCH":"2026-04-25T10:27:51.683040","MEAN_MOTION":1.00271192,"ECCENTRICITY":4.05e-5,"INCLINATION":0.0171,"RA_OF_ASC_NODE":219.0111,"ARG_OF_PERICENTER":86.5367,"MEAN_ANOMALY":153.2713,"EPHEMERIS_TYPE":0,"CLASSIFICATION_TYPE":"U","NORAD_CAT_ID":38070,"ELEMENT_SET_NO":999,"REV_AT_EPOCH":4362,"BSTAR":0,"MEAN_MOTION_DOT":-2.29e-6,"MEAN_MOTION_DDOT":0},{"OBJECT_NAME":"SES-4","OBJECT_ID":"2012-007A","EPOCH":"2026-04-25T08:22:15.004992","MEAN_MOTION":1.00271592,"ECCENTRICITY":0.0002597,"INCLINATION":0.023,"RA_OF_ASC_NODE":52.1996,"ARG_OF_PERICENTER":2.1421,"MEAN_ANOMALY":262.5989,"EPHEMERIS_TYPE":0,"CLASSIFICATION_TYPE":"U","NORAD_CAT_ID":38087,"ELEMENT_SET_NO":999,"REV_AT_EPOCH":5169,"BSTAR":0,"MEAN_MOTION_DOT":-1.82e-6,"MEAN_MOTION_DDOT":0},{"OBJECT_NAME":"BEIDOU-2 G5","OBJECT_ID":"2012-008A","EPOCH":"2026-04-25T20:44:00.323232","MEAN_MOTION":1.00272732,"ECCENTRICITY":0.001231,"INCLINATION":3.4454,"RA_OF_ASC_NODE":69.9882,"ARG_OF_PERICENTER":265.6353,"MEAN_ANOMALY":247.9869,"EPHEMERIS_TYPE":0,"CLASSIFICATION_TYPE":"U","NORAD_CAT_ID":38091,"ELEMENT_SET_NO":999,"REV_AT_EPOCH":5184,"BSTAR":0,"MEAN_MOTION_DOT":4.6e-7,"MEAN_MOTION_DDOT":0},{"OBJECT_NAME":"MUOS-1","OBJECT_ID":"2012-009A","EPOCH":"2026-04-25T19:58:49.657152","MEAN_MOTION":1.00270226,"ECCENTRICITY":0.0059684,"INCLINATION":5.3701,"RA_OF_ASC_NODE":47.1781,"ARG_OF_PERICENTER":1.6208,"MEAN_ANOMALY":4.7311,"EPHEMERIS_TYPE":0,"CLASSIFICATION_TYPE":"U","NORAD_CAT_ID":38093,"ELEMENT_SET_NO":999,"REV_AT_EPOCH":5192,"BSTAR":0,"MEAN_MOTION_DOT":-1.37e-6,"MEAN_MOTION_DDOT":0},{"OBJECT_NAME":"INTELSAT 22 (IS-22)","OBJECT_ID":"2012-011A","EPOCH":"2026-04-25T19:05:09.802176","MEAN_MOTION":1.00270622,"ECCENTRICITY":0.0001768,"INCLINATION":0.0195,"RA_OF_ASC_NODE":113.8551,"ARG_OF_PERICENTER":285.0185,"MEAN_ANOMALY":173.3255,"EPHEMERIS_TYPE":0,"CLASSIFICATION_TYPE":"U","NORAD_CAT_ID":38098,"ELEMENT_SET_NO":999,"REV_AT_EPOCH":666,"BSTAR":0,"MEAN_MOTION_DOT":-7.2e-7,"MEAN_MOTION_DDOT":0},{"OBJECT_NAME":"APSTAR-7","OBJECT_ID":"2012-013A","EPOCH":"2026-04-25T20:49:07.332672","MEAN_MOTION":1.00271264,"ECCENTRICITY":0.0002923,"INCLINATION":0.0336,"RA_OF_ASC_NODE":92.4729,"ARG_OF_PERICENTER":318.8345,"MEAN_ANOMALY":191.3451,"EPHEMERIS_TYPE":0,"CLASSIFICATION_TYPE":"U","NORAD_CAT_ID":38107,"ELEMENT_SET_NO":999,"REV_AT_EPOCH":5128,"BSTAR":0,"MEAN_MOTION_DOT":-1.15e-6,"MEAN_MOTION_DDOT":0},{"OBJECT_NAME":"YAHSAT 1B","OBJECT_ID":"2012-016A","EPOCH":"2026-04-25T03:34:04.272384","MEAN_MOTION":1.00271856,"ECCENTRICITY":0.00025452,"INCLINATION":0.0873,"RA_OF_ASC_NODE":86.4442,"ARG_OF_PERICENTER":311.407,"MEAN_ANOMALY":276.4329,"EPHEMERIS_TYPE":0,"CLASSIFICATION_TYPE":"U","NORAD_CAT_ID":38245,"ELEMENT_SET_NO":999,"REV_AT_EPOCH":4507,"BSTAR":0,"MEAN_MOTION_DOT":1.12e-6,"MEAN_MOTION_DDOT":0},{"OBJECT_NAME":"AEHF-2 (USA 235)","OBJECT_ID":"2012-019A","EPOCH":"2026-04-24T15:17:04.781760","MEAN_MOTION":1.00272749,"ECCENTRICITY":0.00026008,"INCLINATION":6.5281,"RA_OF_ASC_NODE":57.8719,"ARG_OF_PERICENTER":321.8136,"MEAN_ANOMALY":45.7198,"EPHEMERIS_TYPE":0,"CLASSIFICATION_TYPE":"U","NORAD_CAT_ID":38254,"ELEMENT_SET_NO":999,"REV_AT_EPOCH":645,"BSTAR":0,"MEAN_MOTION_DOT":-1.46e-6,"MEAN_MOTION_DDOT":0},{"OBJECT_NAME":"JCSAT-13","OBJECT_ID":"2012-023A","EPOCH":"2026-04-25T17:37:16.035168","MEAN_MOTION":1.00271884,"ECCENTRICITY":0.0002371,"INCLINATION":0.0481,"RA_OF_ASC_NODE":71.6483,"ARG_OF_PERICENTER":326.5746,"MEAN_ANOMALY":203.8439,"EPHEMERIS_TYPE":0,"CLASSIFICATION_TYPE":"U","NORAD_CAT_ID":38331,"ELEMENT_SET_NO":999,"REV_AT_EPOCH":5101,"BSTAR":0,"MEAN_MOTION_DOT":-3.7e-6,"MEAN_MOTION_DDOT":0},{"OBJECT_NAME":"VINASAT-2","OBJECT_ID":"2012-023B","EPOCH":"2026-04-25T19:22:15.663072","MEAN_MOTION":1.002687,"ECCENTRICITY":0.0002739,"INCLINATION":0.0112,"RA_OF_ASC_NODE":60.1445,"ARG_OF_PERICENTER":352.6564,"MEAN_ANOMALY":223.4357,"EPHEMERIS_TYPE":0,"CLASSIFICATION_TYPE":"U","NORAD_CAT_ID":38332,"ELEMENT_SET_NO":999,"REV_AT_EPOCH":4613,"BSTAR":0,"MEAN_MOTION_DOT":0,"MEAN_MOTION_DDOT":0},{"OBJECT_NAME":"NIMIQ 6","OBJECT_ID":"2012-026A","EPOCH":"2026-04-25T20:57:38.714400","MEAN_MOTION":1.00271827,"ECCENTRICITY":0.0002522,"INCLINATION":0.0622,"RA_OF_ASC_NODE":75.8877,"ARG_OF_PERICENTER":313.0103,"MEAN_ANOMALY":48.2946,"EPHEMERIS_TYPE":0,"CLASSIFICATION_TYPE":"U","NORAD_CAT_ID":38342,"ELEMENT_SET_NO":999,"REV_AT_EPOCH":4988,"BSTAR":0,"MEAN_MOTION_DOT":-1.87e-6,"MEAN_MOTION_DDOT":0}]
